FLOCK 3P-39             
1 42038U 17008CU  17331.06869969  .00001934  00000-0  83844-4 0  9999
2 42038  97.4769  31.9812 0008146  17.2143 342.9368 15.23573764 43221
FLOCK 3P-15             
1 42039U 17008CV  17330.87669910  .00001597  00000-0  69856-4 0  9994
2 42039  97.4772  31.7901 0008025  17.4903 342.6609 15.23529033 42476
FLOCK 3P-13             
1 42040U 17008CW  17330.93607641  .00002517  00000-0  10820-3 0  9995
2 42040  97.4776  31.8710 0007874  19.4560 340.6976 15.23572709 42476
FLOCK 3P-55             
1 42041U 17008CX  17330.91462988  .00001708  00000-0  74431-4 0  9997
2 42041  97.4774  31.8948 0007814  22.9468 337.2117 15.23552605 43314
FLOCK 3P-56             
1 42042U 17008CY  17330.89200752  .00003162  00000-0  13334-3 0  9994
2 42042  97.4770  31.9121 0007687  22.0901 338.0666 15.24029864 43108
FLOCK 3P-81             
1 42043U 17008CZ  17330.89701197  .00004512  00000-0  19144-3 0  9999
2 42043  97.4797  31.8663 0007973   0.3910 359.7332 15.23594278 42480
FLOCK 3P-87             
1 42044U 17008DA  17330.84049443  .00002012  00000-0  87112-4 0  9998
2 42044  97.4793  31.7741 0008100 357.2847   2.8345 15.23564713 42626
FLOCK 3P-29             
1 42045U 17008DB  17330.90798488  .00001693  00000-0  73802-4 0  9991
2 42045  97.4777  31.7684 0007663 354.3182   5.7966 15.23559663 42481
FLOCK 3P-82             
1 42046U 17008DC  17330.90606787  .00003240  00000-0  13786-3 0  9996
2 42046  97.4794  31.8471 0008084 357.6119   2.5078 15.23712951 42536
FLOCK 3P-78             
1 42047U 17008DD  17330.90580598  .00004532  00000-0  19232-3 0  9995
2 42047  97.4796  31.8506 0007950 357.1336   2.9854 15.23580708 42466
FLOCK 3P-74             
1 42048U 17008DE  17330.91429275  .00001877  00000-0  81508-4 0  9996
2 42048  97.4799  31.8488 0008316 357.3141   2.8050 15.23546722 42467
FLOCK 3P-31             
1 42049U 17008DF  17330.91631118  .00001602  00000-0  70045-4 0  9998
2 42049  97.4776  31.7600 0007782 355.3839   4.7325 15.23536428 41924
FLOCK 3P-83             
1 42050U 17008DG  17330.91692022  .00003593  00000-0  15325-3 0  9991
2 42050  97.4795  31.8325 0008203 358.6987   1.4227 15.23554721 43193
FLOCK 3P-72             
1 42051U 17008DH  17331.48699308  .00001626  00000-0  71052-4 0  9994
2 42051  97.4802  32.4679 0007682 355.8787   4.2386 15.23537235 40879
LEMUR-2-REDFERN-GOES    
1 42059U 98067LA  17331.52431258  .00024950  00000-0  25304-3 0  9992
2 42059  51.6370 293.9658 0005859 167.9268 192.1869 15.65057797 41522
LEMUR-2-TRUTNA          
1 42067U 98067LC  17330.93445443  .00048050  00000-0  32764-3 0  9991
2 42067  51.6368 290.7360 0004958 141.9069 218.2282 15.74340619 41340
LEMUR-2-AUSTINTACIOUS   
1 42068U 98067LD  17331.41086707  .00028375  00000-0  26563-3 0  9998
2 42068  51.6371 293.2087 0005643 156.4809 203.6446 15.66988179 41456
LEMUR-2-TRUTNAHD        
1 42069U 98067LE  17330.90450487  .00024603  00000-0  24305-3 0  9994
2 42069  51.6381 296.5968 0005287 161.1358 198.9835 15.65732115 41418
HAVELSAT                
1 42700U 98067LH  17331.21442240  .00019274  00000-0  22095-3 0  9991
2 42700  51.6385 300.1617 0003899 194.2491 165.8394 15.62108762 30366
SOMP 2                  
1 42701U 98067LJ  17331.50135446  .00021029  00000-0  24461-3 0  9991
2 42701  51.6381 299.0792 0003937 195.5343 164.5531 15.61664896 30392
COLUMBIA                
1 42702U 98067LK  17331.43854064  .00082745  00000-0  59389-3 0  9997
2 42702  51.6347 294.1221 0004226 136.6280 223.5051 15.72925577 30386
SGSAT                   
1 42703U 98067LL  17331.35169840  .00052481  00000-0  46034-3 0  9997
2 42703  51.6351 296.5475 0004308 104.4942 255.6533 15.68301804 30330
CXBN-2                  
1 42704U 98067LM  17331.31337399  .00021583  00000-0  25015-3 0  9995
2 42704  51.6389 300.0768 0002774 111.9574 248.1715 15.61743687 30293
ICECUBE                 
1 42705U 98067LN  17331.29399226  .00033579  00000-0  35433-3 0  9993
2 42705  51.6415 299.2202 0003141 119.6780 240.4528 15.63896074 30365
PHOENIX                 
1 42706U 98067LP  17331.48810583  .00017498  00000-0  20417-3 0  9997
2 42706  51.6384 298.9923 0001824 109.4666 250.6525 15.61728946 30318
X-CUBESAT               
1 42707U 98067LQ  17331.54382287  .00021980  00000-0  25099-3 0  9992
2 42707  51.6368 298.6014 0001987 110.1141 250.0067 15.62118887 30319
QBEE50-LTU-OC           
1 42708U 98067LR  17331.55373264  .00020466  00000-0  23624-3 0  9999
2 42708  51.6376 298.6693 0001944 112.0693 248.0508 15.61889054 30270
ALTAIR PATHFINDER       
1 42711U 98067LS  17331.31487105  .00013371  00000-0  17234-3 0  9994
2 42711  51.6383 301.5769 0004606 129.9594 230.1804 15.59349890 29922
SHARC                   
1 42712U 98067LT  17331.20925269  .00010771  00000-0  14378-3 0  9998
2 42712  51.6398 302.3876 0002796 128.8460 231.2783 15.58660709 30143
ZA-AEROSAT              
1 42713U 98067LU  17331.43357249  .00018218  00000-0  22080-3 0  9994
2 42713  51.6379 300.1255 0003154 111.3570 248.7761 15.60701032 29952
LINK                    
1 42714U 98067LV  17331.38104789  .00033654  00000-0  35792-3 0  9993
2 42714  51.6363 299.0076 0003643 105.6629 254.4768 15.63692827 30077
CSUNSAT 1               
1 42715U 98067LW  17331.36756752  .00018454  00000-0  22191-3 0  9995
2 42715  51.6387 300.4332 0004968 119.1799 240.9692 15.60890223 29942
UPSAT                   
1 42716U 98067LX  17331.50420830  .00027750  00000-0  30246-3 0  9996
2 42716  51.6379 298.3458 0002331 180.5404 179.5589 15.63173363 30110
SPACECUBE               
1 42717U 98067LY  17331.31421614  .00022305  00000-0  25799-3 0  9995
2 42717  51.6380 300.0760 0002452 187.2460 172.8499 15.61775058 29313
HOOPOE                  
1 42718U 98067LZ  17331.47264602  .00025023  00000-0  28060-3 0  9999
2 42718  51.6378 298.8840 0002428 180.6423 179.4569 15.62502859 29345
CHALLENGER              
1 42721U 98067MA  17331.46619041  .00036725  00000-0  37258-3 0  9993
2 42721  51.6364 298.0741 0005068 166.6945 193.4184 15.64840965 29054
NJUST-1                 
1 42722U 98067MB  17331.46945235  .00017235  00000-0  21226-3 0  9994
2 42722  51.6386 300.3616 0005817 182.4889 177.6076 15.60313987 29028
UNSW-ECO                
1 42723U 98067MC  17331.50709293  .00024770  00000-0  27837-3 0  9998
2 42723  51.6388 299.1179 0005247 174.6266 185.4785 15.62443193 29028
DUTHSAT                 
1 42724U 98067MD  17331.49041358  .00032609  00000-0  33721-3 0  9997
2 42724  51.6375 298.2482 0004276 166.1990 193.9123 15.64420648 28956
LILACSAT-1              
1 42725U 98067ME  17331.51303177  .00020243  00000-0  24144-3 0  9991
2 42725  51.6384 299.9061 0004660 179.6230 180.4768 15.61036333 28936
NSIGHT-1                
1 42726U 98067MF  17331.38017815  .00009677  00000-0  13206-3 0  9993
2 42726  51.6394 302.0260 0005361 189.3849 170.7044 15.58202699 28900
SNUSAT-1                
1 42727U 98067MG  17331.44976241  .00021951  00000-0  26212-3 0  9998
2 42727  51.6371 300.2165 0007325 145.1464 215.0010 15.60931225 28896
QBITO                   
1 42728U 98067MH  17331.34416192  .00023250  00000-0  26968-3 0  9994
2 42728  51.6400 300.2936 0002285 164.8889 195.2174 15.61674665 28720
AALTO-2                 
1 42729U 98067MJ  17331.53473243  .00023137  00000-0  26783-3 0  9995
2 42729  51.6385 299.3037 0002269 164.5569 195.5494 15.61730100 28766
SUSAT                   
1 42730U 98067MK  17331.35984719  .00021090  00000-0  24820-3 0  9998
2 42730  51.6382 300.3807 0002438 164.1508 195.9562 15.61362524 28727
I-INSPIRE II            
1 42731U 98067ML  17331.42774187  .00025737  00000-0  28615-3 0  9991
2 42731  51.6370 299.3172 0007133 128.5512 231.6122 15.62683837 28794
POLYITAN-2-SAU          
1 42732U 98067MM  17331.33379297  .00024126  00000-0  27712-3 0  9993
2 42732  51.6378 300.1939 0007105 129.5118 230.6505 15.61882620 28779
SNUSAT-1B               
1 42733U 98067MN  17331.48835725  .00020032  00000-0  23617-3 0  9995
2 42733  51.6380 299.7298 0007114 132.9001 227.2591 15.61332727 28790
EXALTA-1                
1 42734U 98067MP  17331.49720364  .00026148  00000-0  29116-3 0  9993
2 42734  51.6369 299.0333 0007522 153.9782 206.1592 15.62632322 28751
AOXIANG-1               
1 42735U 98067MQ  17331.46178735  .00017186  00000-0  21060-3 0  9992
2 42735  51.6379 300.3046 0006408 179.8140 180.2857 15.60443815 30155
BEEAGLESAT              
1 42736U 98067MR  17331.50857097  .00018518  00000-0  22245-3 0  9999
2 42736  51.6377 299.8671 0006193 177.0725 183.0305 15.60908052 28852
ATLANTIS                
1 42737U 98067MS  17331.07499601  .00064595  00000-0  51959-3 0  9995
2 42737  51.6338 297.6859 0005646 143.0879 217.0507 15.70309798 28731
LEMUR-2-ANGELA          
1 42752U 17019B   17331.45783667  .00001881  00000-0  79941-4 0  9991
2 42752  51.6409 338.0101 0010196 203.0106 157.0418 15.28303635 26259
LEMUR-2-JENNYBARNA      
1 42753U 17019C   17331.44139575  .00004145  00000-0  15916-3 0  9991
2 42753  51.6402 337.9055 0010231 203.9278 156.1227 15.28624249 26208
LEMUR-2-ROBMOORE        
1 42754U 17019D   17331.46609159  .00001733  00000-0  74813-4 0  9996
2 42754  51.6416 338.0609 0010067 206.0699 153.9775 15.28230957 26234
LEMUR-2-SPIROVISION     
1 42755U 17019E   17331.45204054  .00003215  00000-0  12668-3 0  9997
2 42755  51.6397 337.9689 0010112 205.8758 154.1717 15.28531252 26122
UCLSAT                  
1 42765U 17036A   17330.85460822  .00002094  00000-0  96586-4 0  9993
2 42765  97.4306  28.6981 0013522  69.0565 291.2117 15.21283266 24536
LITUANICASAT-2          
1 42768U 17036D   17330.89261134  .00003043  00000-0  14196-3 0  9996
2 42768  97.4310  28.5005 0017382  58.3062 301.9865 15.20481592 23811
LEMUR-2-SHAINAJOHL      
1 42771U 17036G   17331.47478168  .00001968  00000-0  93070-4 0  9995
2 42771  97.4307  29.0960 0016520  55.7607 304.5191 15.20447182 23847
